     2.11           N: GPS NAV DATA                         RINEX VERSION / TYPE
teqc  2019Feb25                         20221121 12:23:39UTCPGM / RUN BY / DATE
OSX ker:10.11.6|Core i5|gcc 4.3 -m64|OSX ker:10.10+|=+      COMMENT
    6.5193D-09  2.2352D-08 -5.9605D-08 -1.1921D-07          ION ALPHA
    8.6016D+04  9.8304D+04 -6.5536D+04 -5.2429D+05          ION BETA
    0.000000000000D+00 5.329070518201D-15   589824     1533 DELTA-UTC: A0,A1,T,W
                                                            END OF HEADER
19 09  5 27 23 59 28.0 2.438202500343D-05-1.136868377216D-12 0.000000000000D+00
    2.900000000000D+01 6.781250000000D+00 4.910561687462D-09 6.769066094088D-01
    1.788139343262D-07 5.616561742499D-03 7.454305887222D-06 5.153599752426D+03
    3.455680000000D+05 8.381903171539D-08-1.370869679139D+00 2.793967723846D-08
    9.569914789021D-01 2.290000000000D+02-3.607951732072D-01-8.146410759278D-09
    2.692969315838D-10 1.000000000000D+00 1.533000000000D+03 0.000000000000D+00
    2.000000000000D+00 0.000000000000D+00-1.443549990654D-08 2.900000000000D+01
    3.445560000000D+05 4.000000000000D+00
